[{"OBJECT_NAME":"STARLINK-3646","OBJECT_ID":"2022-017T","EPOCH":"2026-03-09T23:18:49.361760","MEAN_MOTION":15.08838658,"ECCENTRICITY":0.00013794,"INCLINATION":53.219,"RA_OF_ASC_NODE":337.8279,"ARG_OF_PERICENTER":111.4117,"MEAN_ANOMALY":248.7022,"EPHEMERIS_TYPE":0,"CLASSIFICATION_TYPE":"U","NORAD_CAT_ID":51785,"ELEMENT_SET_NO":999,"REV_AT_EPOCH":22246,"BSTAR":-1.8176299e-5,"MEAN_MOTION_DOT":-5.77e-6,"MEAN_MOTION_DDOT":0},{"OBJECT_NAME":"CSC-1","OBJECT_ID":"2023-155G","EPOCH":"2026-03-09T17:46:02.342496","MEAN_MOTION":15.1003596,"ECCENTRICITY":0.00075041,"INCLINATION":97.5446,"RA_OF_ASC_NODE":139.7305,"ARG_OF_PERICENTER":212.9992,"MEAN_ANOMALY":147.077,"EPHEMERIS_TYPE":0,"CLASSIFICATION_TYPE":"U","NORAD_CAT_ID":58022,"ELEMENT_SET_NO":999,"REV_AT_EPOCH":13272,"BSTAR":0.00054556609,"MEAN_MOTION_DOT":8.819e-5,"MEAN_MOTION_DDOT":0}]
